ONEWEB-0311             
1 49097U 21075Y   24208.22872196  .00000058  00000+0  11692-3 0  9991
2 49097  87.9191 143.4461 0002371  88.7534 271.3869 13.17648331143637
ONEWEB-0312             
1 49098U 21075Z   24208.09140050 -.00000009  00000+0 -56830-4 0  9996
2 49098  87.9193 143.5050 0001993  94.4863 265.6496 13.17648621143570
ONEWEB-0313             
1 49099U 21075AA  24208.22065222  .00000054  00000+0  10645-3 0  9990
2 49099  87.9191 143.4820 0002069  87.5603 272.5765 13.17649734143609
ONEWEB-0314             
1 49100U 21075AB  24207.91043846  .00000121  00000+0  27732-3 0  9996
2 49100  87.9189 143.4996 0002070  92.3952 267.7416 13.17649521142530
ONEWEB-0315             
1 49101U 21075AC  24208.19570567 -.00000342  00000+0 -98545-3 0  9990
2 49101  87.8946 128.2711 0001994  75.9635 284.1715 13.12445165145537
ONEWEB-0316             
1 49102U 21075AD  24208.22808783  .00000109  00000+0  24307-3 0  9993
2 49102  87.9141 113.0215 0002068  80.6184 279.5182 13.18684957147158
ONEWEB-0317             
1 49103U 21075AE  24208.18921715 -.00000290  00000+0 -84236-3 0  9990
2 49103  87.8949 128.2823 0001630  66.2768 293.8531 13.12444477145542
ONEWEB-0318             
1 49104U 21075AF  24207.69378979  .00000009  00000+0 -10454-4 0  9993
2 49104  87.9143 113.1197 0002114  82.9560 277.1812 13.18684720146035
